IRIDIUM 154             
1 43574U 18061F   26179.74340840  .00000034  00000+0  50042-5 0  9996
2 43574  86.3952  51.9744 0002195  89.3902 270.7545 14.34217614415065
IRIDIUM 163             
1 43575U 18061G   26179.72438078  .00000069  00000+0  17447-4 0  9995
2 43575  86.3950  51.8973 0002191  83.9510 276.1936 14.34217787415030
IRIDIUM 156             
1 43576U 18061H   26179.69901337  .00000224  00000+0  73047-4 0  9996
2 43576  86.3950  51.9152 0002016  86.2814 273.8613 14.34219516415027
IRIDIUM 164             
1 43577U 18061J   26179.74975096  .00000036  00000+0  56905-5 0  9992
2 43577  86.3952  51.9345 0002231  90.2361 269.9090 14.34217769415073
IRIDIUM 159             
1 43578U 18061K   26179.71803806  .00000026  00000+0  21722-5 0  9997
2 43578  86.3945  51.8840 0002109  83.9446 276.1990 14.34217610415032
IRIDIUM 180             
1 43922U 19002A   26179.92683952  .00000052  00000+0  11391-4 0  9996
2 43922  86.3975 348.6890 0002231  89.4233 270.7219 14.34217837390678
IRIDIUM 176             
1 43923U 19002B   26179.91738195  .00000736  00000+0  11285-3 0  9996
2 43923  86.6095 348.6346 0002401  88.4540 271.6952 14.72229142400973
IRIDIUM 168             
1 43924U 19002C   26179.92049287  .00000117  00000+0  34748-4 0  9998
2 43924  86.3977 348.7691 0002227  90.3924 269.7528 14.34217247390659
IRIDIUM 173             
1 43925U 19002D   26179.90781183  .00000019  00000+0 -40076-6 0  9990
2 43925  86.3975 348.6629 0002163  89.1450 270.9994 14.34217702390632
IRIDIUM 169             
1 43926U 19002E   26179.93761127  .00000267  00000+0  80869-4 0  9996
2 43926  86.4218  20.2796 0001651  85.2320 274.9067 14.38608607391915
IRIDIUM 172             
1 43927U 19002F   26179.90146884  .00000028  00000+0  31015-5 0  9996
2 43927  86.3975 348.6736 0002229  89.5440 270.6012 14.34217088390645
IRIDIUM 175             
1 43928U 19002G   26179.71277890  .00000304  00000+0  83751-4 0  9998
2 43928  86.4517 285.7031 0003941 149.5251 210.6179 14.43618855400644
IRIDIUM 171             
1 43929U 19002H   26179.95220972  .00000017  00000+0 -10866-5 0  9994
2 43929  86.3982 348.9599 0001997  94.1968 265.9457 14.34217544390640
IRIDIUM 170             
1 43930U 19002J   26179.92355813  .00000739  00000+0  11343-3 0  9995
2 43930  86.6095 348.6344 0002468  85.1223 275.0276 14.72229723400987
IRIDIUM 167             
1 43931U 19002K   26179.94586695  .00000008  00000+0 -42192-5 0  9990
2 43931  86.3972 348.6775 0001907  98.0545 262.0868 14.34217487390640
IRIDIUM 181             
1 56726U 23068S   26179.75379367  .00000280  00000+0  77196-4 0  9990
2 56726  86.4488  51.9549 0002435  87.1177 273.0303 14.43312011164104
IRIDIUM 177             
1 56727U 23068T   26179.88280938  .00000996  00000+0  12822-3 0  9998
2 56727  86.1972 323.2365 0002335  89.8249 270.3240 14.80038418168098
IRIDIUM 174             
1 56728U 23068U   26179.91120659  .00000768  00000+0  11800-3 0  9998
2 56728  86.6103 348.7881 0002340  80.3777 279.7704 14.72237394167747
IRIDIUM 178             
1 56729U 23068V   26179.93937706  .00000999  00000+0  12861-3 0  9994
2 56729  86.6534  20.4475 0002492  85.9242 274.2265 14.80039864168109
IRIDIUM 179             
1 56730U 23068W   26179.59606777  .00000534  00000+0  67048-4 0  9992
2 56730  86.6767  29.6051 0002439  88.0868 272.0632 14.80056204168054
