OBJECT_NAME,OBJECT_ID,EPOCH,MEAN_MOTION,ECCENTRICITY,INCLINATION,RA_OF_ASC_NODE,ARG_OF_PERICENTER,MEAN_ANOMALY,EPHEMERIS_TYPE,CLASSIFICATION_TYPE,NORAD_CAT_ID,ELEMENT_SET_NO,REV_AT_EPOCH,BSTAR,MEAN_MOTION_DOT,MEAN_MOTION_DDOT
IRIDIUM 154,2018-061F,2026-06-28T17:50:30.485760,14.34217614,.00021957,86.3952,51.9744,89.3902,270.7545,0,U,43574,999,41506,.5004183E-5,.34E-6,0
IRIDIUM 163,2018-061G,2026-06-28T17:23:06.499392,14.34217787,.00021915,86.3950,51.8973,83.9510,276.1936,0,U,43575,999,41503,.1744709E-4,.69E-6,0
IRIDIUM 156,2018-061H,2026-06-28T16:46:34.755168,14.34219516,.00020161,86.3950,51.9152,86.2814,273.8613,0,U,43576,999,41502,.73046686E-4,.224E-5,0
IRIDIUM 164,2018-061J,2026-06-28T17:59:38.482944,14.34217769,.0002231,86.3952,51.9345,90.2361,269.9090,0,U,43577,999,41507,.5690458E-5,.36E-6,0
IRIDIUM 159,2018-061K,2026-06-28T17:13:58.488384,14.34217610,.0002109,86.3945,51.8840,83.9446,276.1990,0,U,43578,999,41503,.217217E-5,.26E-6,0
IRIDIUM 180,2019-002A,2026-06-28T22:14:38.934528,14.34217837,.00022312,86.3975,348.6890,89.4233,270.7219,0,U,43922,999,39067,.11390944E-4,.52E-6,0
IRIDIUM 176,2019-002B,2026-06-28T22:01:01.800480,14.72229142,.00024011,86.6095,348.6346,88.4540,271.6952,0,U,43923,999,40097,.11284974E-3,.736E-5,0
IRIDIUM 168,2019-002C,2026-06-28T22:05:30.583968,14.34217247,.00022273,86.3977,348.7691,90.3924,269.7528,0,U,43924,999,39065,.34748284E-4,.117E-5,0
IRIDIUM 173,2019-002D,2026-06-28T21:47:14.942112,14.34217702,.00021637,86.3975,348.6629,89.1450,270.9994,0,U,43925,999,39063,-.400756E-6,.19E-6,0
IRIDIUM 169,2019-002E,2026-06-28T22:30:09.613728,14.38608607,.00016517,86.4218,20.2796,85.2320,274.9067,0,U,43926,999,39191,.8086871E-4,.267E-5,0
IRIDIUM 172,2019-002F,2026-06-28T21:38:06.907776,14.34217088,.00022298,86.3975,348.6736,89.5440,270.6012,0,U,43927,999,39064,.3101469E-5,.28E-6,0
IRIDIUM 175,2019-002G,2026-06-28T17:06:24.096960,14.43618855,.00039412,86.4517,285.7031,149.5251,210.6179,0,U,43928,999,40064,.83750512E-4,.304E-5,0
IRIDIUM 171,2019-002H,2026-06-28T22:51:10.919808,14.34217544,.00019977,86.3982,348.9599,94.1968,265.9457,0,U,43929,999,39064,-.1086637E-5,.17E-6,0
IRIDIUM 170,2019-002J,2026-06-28T22:09:55.422432,14.72229723,.00024682,86.6095,348.6344,85.1223,275.0276,0,U,43930,999,40098,.11342535E-3,.739E-5,0
IRIDIUM 167,2019-002K,2026-06-28T22:42:02.904480,14.34217487,.0001907,86.3972,348.6775,98.0545,262.0868,0,U,43931,999,39064,-.4219155E-5,.8E-7,0
IRIDIUM 181,2023-068S,2026-06-28T18:05:27.773088,14.43312011,.0002435,86.4488,51.9549,87.1177,273.0303,0,U,56726,999,16410,.77196298E-4,.28E-5,0
IRIDIUM 177,2023-068T,2026-06-28T21:11:14.730432,14.80038418,.0002335,86.1972,323.2365,89.8249,270.3240,0,U,56727,999,16809,.12822108E-3,.996E-5,0
IRIDIUM 174,2023-068U,2026-06-28T21:52:08.249376,14.72237394,.00023405,86.6103,348.7881,80.3777,279.7704,0,U,56728,999,16774,.11799649E-3,.768E-5,0
IRIDIUM 178,2023-068V,2026-06-28T22:32:42.177984,14.80039864,.00024927,86.6534,20.4475,85.9242,274.2265,0,U,56729,999,16810,.1286104E-3,.999E-5,0
IRIDIUM 179,2023-068W,2026-06-28T14:18:20.255328,14.80056204,.00024398,86.6767,29.6051,88.0868,272.0632,0,U,56730,999,16805,.67048027E-4,.534E-5,0
